[{"OBJECT_NAME":"LAPAN-A3","OBJECT_ID":"2016-040E","EPOCH":"2026-03-09T23:01:57.724896","MEAN_MOTION":15.3238951,"ECCENTRICITY":0.00109839,"INCLINATION":97.1488,"RA_OF_ASC_NODE":68.4254,"ARG_OF_PERICENTER":22.062,"MEAN_ANOMALY":338.1093,"EPHEMERIS_TYPE":0,"CLASSIFICATION_TYPE":"U","NORAD_CAT_ID":41603,"ELEMENT_SET_NO":999,"REV_AT_EPOCH":53961,"BSTAR":0.00017567445,"MEAN_MOTION_DOT":5.428e-5,"MEAN_MOTION_DDOT":0},{"OBJECT_NAME":"STARLINK-34943","OBJECT_ID":"2025-190R","EPOCH":"2026-03-09T13:40:42.776256","MEAN_MOTION":15.3018105,"ECCENTRICITY":0.0001206,"INCLINATION":53.1576,"RA_OF_ASC_NODE":168.9653,"ARG_OF_PERICENTER":77.6681,"MEAN_ANOMALY":282.4454,"EPHEMERIS_TYPE":0,"CLASSIFICATION_TYPE":"U","NORAD_CAT_ID":65366,"ELEMENT_SET_NO":999,"REV_AT_EPOCH":2926,"BSTAR":0.00041569,"MEAN_MOTION_DOT":0.00011965,"MEAN_MOTION_DDOT":0}]
